ASTROCAST-0402          
1 55109U 23001DE  26068.80661100  .00010930  00000+0  41835-3 0  9996
2 55109  97.5556 160.6821 0004209 216.6984 143.3966 15.26734153129364
STARLINK-31663          
1 59576U 24076N   26068.19315684 -.00001934  00000+0 -60810-4 0  9997
2 59576  43.0028  12.0711 0001489 274.3528  85.7154 15.27564134106427
